163P/NEAT,e,12.7210,102.0722,349.6032,3.762028,0.1350738,0.45341512,261.0084,11/21.0/2024,2000,g 14.5,4.0
# From MPEC 2024-TD8
164P/Christensen,e,16.2773,88.2697,325.9463,3.651509,0.1412523,0.54123440,333.5299,11/21.0/2024,2000,g 11.0,4.0
# From MPC 75721
165P/LINEAR,e,15.9039,0.7335,125.8118,17.81448,0.0131082,0.61881119,117.0907,11/21.0/2024,2000,g 11.5,2.0
# From MPC 75722
166P/NEAT,e,15.3801,64.4289,321.8107,13.83339,0.0191563,0.38361849,157.0782,11/21.0/2024,2000,g  5.5,4.0
# From MPEC 2023-J29
167P/CINEOS,e,19.0794,295.8228,344.5914,16.25732,0.0150359,0.26792983,129.7751,11/21.0/2024,2000,g  9.5,2.0
# From MPEC 2023-J29
168P/Hergenrother,e,21.5981,355.4025,15.0943,3.586726,0.1450965,0.62139629,280.0262,11/21.0/2024,2000,g 15.5,4.0
# From MPEC 2023-J95
169P/NEAT,e,11.2901,176.0764,218.1040,2.603503,0.2346211,0.76818434,202.9889,11/21.0/2024,2000,g 16.0,2.0
# From MPEC 2024-TD8
170P/Christensen,e,10.1226,142.6538,224.9156,4.198903,0.1145514,0.30527903,66.9569,11/21.0/2024,2000,g 12.0,4.0
# From MPC102102
171P/Spahr,e,21.9506,101.7011,347.0821,3.552098,0.1472233,0.50269092,314.6480,11/21.0/2024,2000,g 13.5,4.0
# From MPEC 2024-L77
172P/Yeung,e,11.2244,30.8809,208.9535,4.221943,0.1136149,0.20465951,320.5908,11/21.0/2024,2000,g 13.0,4.0
# From MPEC 2023-N01
173P/Mueller,e,16.4925,100.3488,29.2291,5.713907,0.0721613,0.26223559,77.1964,11/21.0/2024,2000,g  7.5,4.0
# From MPC 92985
174P/Echeclus,e,4.3421,173.3181,163.4527,10.75845,0.0279305,0.45534575,97.7700,11/21.0/2024,2000,g  9.4,2.0
# From MPC114608
175P/Hergenrother,e,4.9204,109.8997,74.9378,3.683815,0.1393983,0.37747054,269.2551,11/21.0/2024,2000,g 14.0,4.0
# From MPC 89015
176P/LINEAR,e,0.2313,345.6344,34.4593,3.194749,0.1726032,0.19206637,126.3349,11/21.0/2024,2000,g 15.1,2.0
# From MPEC 2020-L06
177P/Barnard,e,31.0167,271.8844,60.7146,24.51708,0.0081190,0.95445707,54.0314,11/21.0/2024,2000,g 15.0,4.0
# From MPEC 2024-R10
178P/Hug-Bell,e,11.0917,102.7881,297.9517,3.632759,0.1423473,0.48244457,225.8872,11/21.0/2024,2000,g 13.5,4.0
# From MPEC 2024-EF7
179P/Jedicke,e,19.8913,115.5114,297.1658,5.936138,0.0681472,0.30565361,61.6173,11/21.0/2024,2000,g  2.5,8.0
# From MPEC 2024-F34
180P/NEAT,e,16.8623,84.5600,94.6201,3.868068,0.1295576,0.35367391,64.5096,11/21.0/2024,2000,g 11.0,4.0
# From MPC 89012
181P/Shoemaker-Levy,e,17.4798,35.4295,336.2971,3.878491,0.1290357,0.70007356,135.1570,11/21.0/2024,2000,g 11.5,4.0
# From MPEC 2024-UQ8
182P/LONEOS,e,16.2323,72.4633,54.1921,2.949083,0.1946137,0.66377986,179.7096,11/21.0/2024,2000,g 18.0,4.0
# From MPEC 2024-VJ2
183P/Korlevic-Juric,e,18.7556,3.7055,163.5536,4.699646,0.0967401,0.10258401,259.6163,11/21.0/2024,2000,g 12.5,2.0
# From MPEC 2020-W26
184P/Lovas,e,4.5715,173.2733,186.5654,3.799980,0.1330553,0.55011747,197.8713,11/21.0/2024,2000,g 13.5,4.0
# From MPEC 2024-F91
185P/Petriew,e,14.0133,214.1180,181.9115,3.099186,0.1806477,0.69959380,89.8054,11/21.0/2024,2000,g 15.0,4.0
# From MPEC 2022-X67
186P/Garradd,e,28.6326,326.0014,268.7934,4.852917,0.0921934,0.12410725,199.4103,11/21.0/2024,2000,g  7.5,4.0
# From MPEC 2020-SI8
187P/LINEAR,e,13.6602,109.8414,131.3264,4.555380,0.1013718,0.15512599,241.4856,11/21.0/2024,2000,g  9.0,4.0
# From MPEC 2023-J29
188P/LINEAR-Mueller,e,10.5239,358.9242,26.7969,4.366512,0.1080195,0.41684997,305.1092,11/21.0/2024,2000,g 11.5,4.0
# From MPEC 2022-QD9
189P/NEAT,e,20.1079,281.6747,16.2146,2.941566,0.1953602,0.58975702,159.2265,11/21.0/2024,2000,g 19.0,4.0
# From MPEC 2024-VJ2
190P/Mueller,e,2.1747,335.5003,50.5225,4.227020,0.1134103,0.52223701,356.2429,11/21.0/2024,2000,g 13.0,4.0
# From MPEC 2024-TD8
191P/McNaught,e,8.8393,98.1823,284.2642,3.640156,0.1419136,0.38542846,190.3819,11/21.0/2024,2000,g 13.0,4.0
# From MPEC 2024-VJ2
192P/Shoemaker-Levy,e,24.5866,51.6090,313.0812,6.465324,0.0599541,0.77351805,10.8190,11/21.0/2024,2000,g 15.0,4.0
# From MPEC 2024-R10
193P/LINEAR-NEAT,e,10.6813,335.1882,8.1331,3.578862,0.1455750,0.39284933,172.4474,11/21.0/2024,2000,g 14.0,4.0
# From MPEC 2024-GJ3
194P/LINEAR,e,11.8048,349.5223,128.5835,4.121274,0.1178031,0.56331673,34.2495,11/21.0/2024,2000,g 16.0,4.0
# From MPEC 2024-VJ2
195P/Hill,e,36.4222,243.1101,250.4559,6.455485,0.0600912,0.31201451,344.5899,11/21.0/2024,2000,g  8.5,4.0
# From MPEC 2024-GJ3
196P/Tichy,e,19.2990,24.1198,12.1165,3.805391,0.1327716,0.42777652,100.0649,11/21.0/2024,2000,g 13.5,4.0
# From MPEC 2023-UR6
197P/LINEAR,e,25.5738,66.2449,189.7474,2.898057,0.1997762,0.62407692,142.6406,11/21.0/2024,2000,g 16.5,2.0
# From MPEC 2024-VJ2
198P/ODAS,e,1.3399,358.4704,69.0296,3.592406,0.1447525,0.44464300,313.6677,11/21.0/2024,2000,g 12.5,4.0
# From MPEC 2024-Q20
199P/Shoemaker,e,24.9387,92.3472,191.7723,5.876066,0.0691949,0.50465063,32.6250,11/21.0/2024,2000,g 10.0,4.0
# From MPEC 2022-C56
200P/Larsen,e,12.0964,234.8045,134.3901,4.951656,0.0894496,0.33160352,173.6541,11/21.0/2024,2000,g  9.0,4.0
# From MPC 93588
201P/LONEOS,e,5.7387,41.5349,19.7836,3.354695,0.1604075,0.63759676,204.2582,11/21.0/2024,2000,g 14.0,4.0
# From MPEC 2023-XP6
202P/Scotti,e,2.1417,177.3021,274.4896,4.100102,0.1187168,0.25131477,22.2814,11/21.0/2024,2000,g 13.5,4.0
# From MPEC 2021-S45
203P/Korlevic,e,2.9751,290.2391,154.8825,4.668411,0.0977126,0.31639147,168.0813,11/21.0/2024,2000,g 14.5,2.0
# From MPEC 2024-JU4
204P/LINEAR-NEAT,e,6.5973,108.4764,356.7069,3.583810,0.1452736,0.48825152,106.7595,11/21.0/2024,2000,g 14.0,4.0
# From MPEC 2023_O39
205P/Giacobini,e,15.3026,179.6186,154.1740,3.542877,0.1477985,0.56733180,154.1503,11/21.0/2024,2000,g 13.0,4.0
# From MPC 75725
206P/Barnard-Boattini,e,33.6268,202.3490,189.5677,3.491171,0.1510941,0.55131315,205.0168,11/21.0/2024,2000,g 19.0,4.0
# From MPEC 2024-NE4
207P/NEAT,e,10.2004,198.1526,273.0029,3.884986,0.1287123,0.75848459,37.8628,11/21.0/2024,2000,g 16.0,4.0
# From MPEC 2024-VB7
208P/McMillan,e,4.4126,36.3347,310.7181,4.038333,0.1214509,0.37379166,10.8041,11/21.0/2024,2000,g 12.5,4.0
# From MPEC 2024-TD8
209P/LINEAR,e,21.2824,62.7696,152.4897,2.958399,0.1936952,0.67401812,25.0847,11/21.0/2024,2000,g 17.0,2.0
# From MPC105242
210P/Christensen,e,10.2817,93.8248,345.9077,3.161506,0.1753328,0.83407019,295.7042,11/21.0/2024,2000,g 13.5,4.0
# From MPEC 2024-JU4
211P/Hill,e,18.9224,117.1041,4.3285,3.548803,0.1474284,0.34438313,114.7113,11/21.0/2024,2000,g 12.5,4.0
# From MPEC 2024-GJ3
212P/NEAT,e,22.1487,97.9737,14.0347,3.901535,0.1278942,0.58669315,26.8433,11/21.0/2024,2000,g 17.0,2.0
# From MPEC 2022-GA9
213P/Van Ness,e,10.3833,311.2286,5.9700,3.350201,0.1607303,0.40859768,60.2451,11/21.0/2024,2000,g 10.5,4.0
# From MPC 76570
213P-B/Van Ness,e,10.3701,5.6797,311.5256,3.350530,0.1607067,0.40877391,60.0912,11/21.0/2024,2000,g 17.0,4.0
# From MPC 76570
213P-C/Van Ness,e,10.3675,5.6596,311.5291,3.349913,0.1607510,0.40861760,60.3750,11/21.0/2024,2000,g 17.5,4.0
# From MPC 92986
214P/LINEAR,e,15.1890,348.2151,190.1270,3.617047,0.1432758,0.48604548,112.7337,11/21.0/2024,2000,g 13.0,4.0
# From MPEC 2024-F91
215P/NEAT,e,10.5765,56.6737,262.3443,4.334732,0.1092096,0.16511492,200.0285,11/21.0/2024,2000,g 11.0,4.0
# From MPEC 2024-N80
216P/LINEAR,e,9.0620,359.7935,151.7459,3.859464,0.1299911,0.44888132,41.4783,11/21.0/2024,2000,g 13.0,4.0
# From MPEC 2024-LE0
217P/LINEAR,e,12.8649,125.3726,247.0303,3.945288,0.1257726,0.68915098,336.7403,11/21.0/2024,2000,g 12.0,4.0
# From MPEC 2022-K19
218P/LINEAR,e,2.7238,174.9738,60.9303,3.068751,0.1833418,0.63054974,274.2390,11/21.0/2024,2000,g 16.0,4.0
# From MPEC 2024-VJ2
219P/LINEAR,e,11.5383,230.9538,107.7171,3.649348,0.1413778,0.35459025,39.7053,11/21.0/2024,2000,g 11.0,4.0
# From MPEC 2024-A43
220P/McNaught,e,8.1219,150.0983,180.6021,3.119574,0.1788797,0.50052381,258.0176,11/21.0/2024,2000,g 15.0,4.0
# From MPEC 2022-UY9
221P/LINEAR,e,11.4038,229.2664,39.3654,3.412773,0.1563303,0.50994763,165.5237,11/21.0/2024,2000,g 14.5,4.0
# From MPC 92277
222P/LINEAR,e,5.0962,6.7715,346.2848,2.897482,0.1998357,0.71475096,38.3893,11/21.0/2024,2000,g 20.0,4.0
# From MPEC 2023-A50
223P/Skiff,e,27.0078,346.7226,37.9675,4.158139,0.1162400,0.41642173,246.6017,11/21.0/2024,2000,g 12.0,4.0
# From MPEC 2024-L77
224P/LINEAR-NEAT,e,13.3042,40.0404,16.7869,3.446386,0.1540487,0.40577060,120.5900,11/21.0/2024,2000,g 15.5,4.0
# From MPEC 2024-F91
225P/LINEAR,e,21.3649,14.2049,3.9048,3.647356,0.1414936,0.63832777,66.6470,11/21.0/2024,2000,g 18.0,4.0
# From MPEC 2024-MB8
226P/Pigott-LINEAR-Kowalski,e,44.0453,54.0104,341.0275,3.765440,0.1348902,0.52899751,44.4971,11/21.0/2024,2000,g 12.5,4.0
# From MPEC 2024-R10
227P/Catalina-LINEAR,e,7.5082,36.8089,105.5763,3.436942,0.1546841,0.52759809,39.8665,11/21.0/2024,2000,g 16.5,2.0
# From MPEC 2022-HC2
228P/LINEAR,e,7.9142,30.9647,114.7444,4.163382,0.1160205,0.17710795,199.3952,11/21.0/2024,2000,g 14.1,4.0
# From MPEC 2024-UA9
229P/Gibbs,e,26.0970,157.8837,224.2023,3.923097,0.1268412,0.37793984,346.7149,11/21.0/2024,2000,g 13.0,4.0
# From MPEC 2024-P23
230P/LINEAR,e,15.4708,106.9333,313.5589,3.454619,0.1534984,0.54561256,150.0200,11/21.0/2024,2000,g 13.0,4.0
# From MPEC 2023-SQ0
231P/LINEAR-NEAT,e,12.2718,132.8195,43.9007,4.057957,0.1205710,0.24026043,240.9250,11/21.0/2024,2000,g 14.5,2.0
# From MPC112394
232P/Hill,e,14.6436,56.0235,53.2491,4.471107,0.1042513,0.33592493,214.0955,11/21.0/2024,2000,g 11.5,4.0
# From MPEC 2021-N06
233P/La Sagra,e,11.2888,74.9002,27.0073,3.026840,0.1871629,0.41289640,282.6752,11/21.0/2024,2000,g 15.0,4.0
# From MPEC 2024-DC6
234P/LINEAR,e,11.5349,179.5677,357.4223,3.796755,0.1332249,0.25703716,3.7854,11/21.0/2024,2000,g 12.0,4.0
# From MPC110497
235P/LINEAR,e,9.5901,203.6078,348.6671,3.494881,0.1508535,0.40590681,296.4301,11/21.0/2024,2000,g 12.0,4.0
# From MPEC 2024-P23
236P/LINEAR,e,16.3557,245.5694,119.4136,3.724637,0.1371129,0.50918575,349.7436,11/21.0/2024,2000,g 14.0,4.0
# From MPEC 2024-UQ8
237P/LINEAR,e,14.0174,245.3522,25.4302,3.513979,0.1496254,0.43352849,83.2225,11/21.0/2024,2000,g 14.5,2.0
# From MPEC 2024-L77
238P/Read,e,1.2639,51.6420,324.2693,3.166782,0.1748948,0.25089994,157.3574,11/21.0/2024,2000,g 14.5,4.0
